{"fetched_at":"2026-07-07T07:58:37.854Z","source":"https://celestrak.org/NORAD/elements/gp.php?NAME=JILIN&FORMAT=JSON","constellation":"jilin-1-gaofen","records":[{"OBJECT_NAME":"JILIN-1 GAOFEN 3A","OBJECT_ID":"2019-032C","EPOCH":"2026-07-06T15:15:52.117632","CLASSIFICATION_TYPE":"U","MEAN_MOTION":15.33076409,"ECCENTRICITY":0.00048,"INCLINATION":44.9742,"RA_OF_ASC_NODE":249.8656,"ARG_OF_PERICENTER":42.9615,"MEAN_ANOMALY":317.1644,"EPHEMERIS_TYPE":0,"NORAD_CAT_ID":44312,"ELEMENT_SET_NO":999,"REV_AT_EPOCH":39082,"BSTAR":0.00030497,"MEAN_MOTION_DOT":0.00009638,"MEAN_MOTION_DDOT":0},{"OBJECT_NAME":"JILIN-1 GAOFEN 2A","OBJECT_ID":"2019-075A","EPOCH":"2026-07-06T19:53:21.435648","CLASSIFICATION_TYPE":"U","MEAN_MOTION":15.39857827,"ECCENTRICITY":0.0005992,"INCLINATION":97.4957,"RA_OF_ASC_NODE":272.0844,"ARG_OF_PERICENTER":25.7169,"MEAN_ANOMALY":334.4373,"EPHEMERIS_TYPE":0,"NORAD_CAT_ID":44777,"ELEMENT_SET_NO":999,"REV_AT_EPOCH":36790,"BSTAR":0.00026938,"MEAN_MOTION_DOT":0.0001062,"MEAN_MOTION_DDOT":0},{"OBJECT_NAME":"JILIN-1 GAOFEN 2B","OBJECT_ID":"2019-086A","EPOCH":"2026-07-06T19:41:11.606208","CLASSIFICATION_TYPE":"U","MEAN_MOTION":15.2093642,"ECCENTRICITY":0.0012639,"INCLINATION":97.487,"RA_OF_ASC_NODE":259.69,"ARG_OF_PERICENTER":247.5169,"MEAN_ANOMALY":112.4729,"EPHEMERIS_TYPE":0,"NORAD_CAT_ID":44836,"ELEMENT_SET_NO":999,"REV_AT_EPOCH":36347,"BSTAR":0.00022613,"MEAN_MOTION_DOT":0.00004944,"MEAN_MOTION_DDOT":0},{"OBJECT_NAME":"JILIN-1 GAOFEN 3E","OBJECT_ID":"2020-065D","EPOCH":"2026-07-06T20:28:53.322816","CLASSIFICATION_TYPE":"U","MEAN_MOTION":15.66313092,"ECCENTRICITY":0.0011444,"INCLINATION":97.2216,"RA_OF_ASC_NODE":240.9492,"ARG_OF_PERICENTER":98.2325,"MEAN_ANOMALY":262.0234,"EPHEMERIS_TYPE":0,"NORAD_CAT_ID":46457,"ELEMENT_SET_NO":999,"REV_AT_EPOCH":32283,"BSTAR":0.00055225,"MEAN_MOTION_DOT":0.00057415,"MEAN_MOTION_DDOT":0},{"OBJECT_NAME":"JILIN-1 GAOFEN 3F","OBJECT_ID":"2020-065E","EPOCH":"2026-07-06T20:25:16.984992","CLASSIFICATION_TYPE":"U","MEAN_MOTION":15.63182888,"ECCENTRICITY":0.0012843,"INCLINATION":97.2173,"RA_OF_ASC_NODE":238.183,"ARG_OF_PERICENTER":85.546,"MEAN_ANOMALY":274.7266,"EPHEMERIS_TYPE":0,"NORAD_CAT_ID":46458,"ELEMENT_SET_NO":999,"REV_AT_EPOCH":32277,"BSTAR":0.00052814,"MEAN_MOTION_DOT":0.00048499,"MEAN_MOTION_DDOT":0},{"OBJECT_NAME":"JILIN-1 GAOFEN 3G","OBJECT_ID":"2020-065F","EPOCH":"2026-07-06T20:48:42.272352","CLASSIFICATION_TYPE":"U","MEAN_MOTION":15.75381548,"ECCENTRICITY":0.0004732,"INCLINATION":97.223,"RA_OF_ASC_NODE":245.3557,"ARG_OF_PERICENTER":322.6586,"MEAN_ANOMALY":37.435,"EPHEMERIS_TYPE":0,"NORAD_CAT_ID":46459,"ELEMENT_SET_NO":999,"REV_AT_EPOCH":32303,"BSTAR":0.00062949,"MEAN_MOTION_DOT":0.00095661,"MEAN_MOTION_DDOT":0},{"OBJECT_NAME":"JILIN-1 GAOFEN 3H","OBJECT_ID":"2020-065G","EPOCH":"2026-07-06T19:45:27.042624","CLASSIFICATION_TYPE":"U","MEAN_MOTION":15.71069858,"ECCENTRICITY":0.0005135,"INCLINATION":97.2184,"RA_OF_ASC_NODE":241.5081,"ARG_OF_PERICENTER":233.9098,"MEAN_ANOMALY":126.169,"EPHEMERIS_TYPE":0,"NORAD_CAT_ID":46460,"ELEMENT_SET_NO":999,"REV_AT_EPOCH":32296,"BSTAR":0.0006035,"MEAN_MOTION_DOT":0.00076177,"MEAN_MOTION_DDOT":0},{"OBJECT_NAME":"JILIN-1 GAOFEN 2D","OBJECT_ID":"2021-086A","EPOCH":"2026-07-06T19:57:50.774688","CLASSIFICATION_TYPE":"U","MEAN_MOTION":15.10818897,"ECCENTRICITY":0.0034405,"INCLINATION":97.6496,"RA_OF_ASC_NODE":310.5416,"ARG_OF_PERICENTER":78.2254,"MEAN_ANOMALY":282.2831,"EPHEMERIS_TYPE":0,"NORAD_CAT_ID":49256,"ELEMENT_SET_NO":999,"REV_AT_EPOCH":26368,"BSTAR":0.00024862,"MEAN_MOTION_DOT":0.00004122,"MEAN_MOTION_DDOT":0},{"OBJECT_NAME":"JILIN-1 GAOFEN 2F","OBJECT_ID":"2021-097A","EPOCH":"2026-07-06T19:28:08.035968","CLASSIFICATION_TYPE":"U","MEAN_MOTION":15.07908785,"ECCENTRICITY":0.0019382,"INCLINATION":97.6726,"RA_OF_ASC_NODE":313.9663,"ARG_OF_PERICENTER":156.2862,"MEAN_ANOMALY":203.9263,"EPHEMERIS_TYPE":0,"NORAD_CAT_ID":49338,"ELEMENT_SET_NO":999,"REV_AT_EPOCH":25927,"BSTAR":0.00021129,"MEAN_MOTION_DOT":0.00003191,"MEAN_MOTION_DDOT":0},{"OBJECT_NAME":"JILIN-1 GAOFEN 3D27","OBJECT_ID":"2022-048B","EPOCH":"2026-07-06T19:34:58.111104","CLASSIFICATION_TYPE":"U","MEAN_MOTION":15.80813205,"ECCENTRICITY":0.0004275,"INCLINATION":97.5725,"RA_OF_ASC_NODE":303.6086,"ARG_OF_PERICENTER":266.6502,"MEAN_ANOMALY":93.4276,"EPHEMERIS_TYPE":0,"NORAD_CAT_ID":52444,"ELEMENT_SET_NO":999,"REV_AT_EPOCH":23257,"BSTAR":0.00072301,"MEAN_MOTION_DOT":0.00140657,"MEAN_MOTION_DDOT":0},{"OBJECT_NAME":"JILIN-1 GAOFEN 3D28","OBJECT_ID":"2022-048C","EPOCH":"2026-07-06T20:01:10.511616","CLASSIFICATION_TYPE":"U","MEAN_MOTION":15.85108669,"ECCENTRICITY":0.0003866,"INCLINATION":97.5655,"RA_OF_ASC_NODE":303.8747,"ARG_OF_PERICENTER":255.2121,"MEAN_ANOMALY":104.8721,"EPHEMERIS_TYPE":0,"NORAD_CAT_ID":52445,"ELEMENT_SET_NO":999,"REV_AT_EPOCH":23263,"BSTAR":0.00077615,"MEAN_MOTION_DOT":0.00185434,"MEAN_MOTION_DDOT":0},{"OBJECT_NAME":"JILIN-1 GAOFEN 3D29","OBJECT_ID":"2022-048D","EPOCH":"2026-07-06T19:14:45.888000","CLASSIFICATION_TYPE":"U","MEAN_MOTION":15.80991594,"ECCENTRICITY":0.0003618,"INCLINATION":97.5719,"RA_OF_ASC_NODE":303.9564,"ARG_OF_PERICENTER":243.5271,"MEAN_ANOMALY":116.5626,"EPHEMERIS_TYPE":0,"NORAD_CAT_ID":52446,"ELEMENT_SET_NO":999,"REV_AT_EPOCH":23259,"BSTAR":0.00072154,"MEAN_MOTION_DOT":0.00141511,"MEAN_MOTION_DDOT":0},{"OBJECT_NAME":"JILIN-1 GAOFEN 3D31","OBJECT_ID":"2022-048F","EPOCH":"2026-07-06T19:38:58.812864","CLASSIFICATION_TYPE":"U","MEAN_MOTION":15.89816378,"ECCENTRICITY":0.0004596,"INCLINATION":97.5711,"RA_OF_ASC_NODE":305.1937,"ARG_OF_PERICENTER":248.3558,"MEAN_ANOMALY":111.7225,"EPHEMERIS_TYPE":0,"NORAD_CAT_ID":52448,"ELEMENT_SET_NO":999,"REV_AT_EPOCH":23269,"BSTAR":0.00084423,"MEAN_MOTION_DOT":0.00248231,"MEAN_MOTION_DDOT":0.000024573},{"OBJECT_NAME":"JILIN-1 GAOFEN 03D09","OBJECT_ID":"2022-098B","EPOCH":"2026-07-06T20:52:06.362976","CLASSIFICATION_TYPE":"U","MEAN_MOTION":15.69250945,"ECCENTRICITY":0.0002845,"INCLINATION":97.5616,"RA_OF_ASC_NODE":319.057,"ARG_OF_PERICENTER":262.0012,"MEAN_ANOMALY":98.0927,"EPHEMERIS_TYPE":0,"NORAD_CAT_ID":53445,"ELEMENT_SET_NO":999,"REV_AT_EPOCH":21771,"BSTAR":0.00058393,"MEAN_MOTION_DOT":0.00068264,"MEAN_MOTION_DDOT":0},{"OBJECT_NAME":"JILIN-1 GAOFEN 03D43","OBJECT_ID":"2022-098E","EPOCH":"2026-07-06T20:45:17.518176","CLASSIFICATION_TYPE":"U","MEAN_MOTION":15.72787868,"ECCENTRICITY":0.0003167,"INCLINATION":97.5604,"RA_OF_ASC_NODE":320.1655,"ARG_OF_PERICENTER":254.1202,"MEAN_ANOMALY":105.9712,"EPHEMERIS_TYPE":0,"NORAD_CAT_ID":53448,"ELEMENT_SET_NO":999,"REV_AT_EPOCH":21778,"BSTAR":0.00061497,"MEAN_MOTION_DOT":0.00083477,"MEAN_MOTION_DDOT":0},{"OBJECT_NAME":"JILIN-1 GAOFEN 03D08","OBJECT_ID":"2022-155A","EPOCH":"2026-07-06T20:24:48.747744","CLASSIFICATION_TYPE":"U","MEAN_MOTION":15.66760582,"ECCENTRICITY":0.0003809,"INCLINATION":97.6229,"RA_OF_ASC_NODE":334.8531,"ARG_OF_PERICENTER":258.9253,"MEAN_ANOMALY":101.1578,"EPHEMERIS_TYPE":0,"NORAD_CAT_ID":54251,"ELEMENT_SET_NO":999,"REV_AT_EPOCH":20289,"BSTAR":0.00052122,"MEAN_MOTION_DOT":0.00054979,"MEAN_MOTION_DDOT":0}]}
