JILIN-1 GAOFEN 3A       
1 44312U 19032C   26187.63601988  .00009638  00000+0  30497-3 0  9995
2 44312  44.9742 249.8656 0004800  42.9615 317.1644 15.33076409390821
JILIN-1 GAOFEN 2A       
1 44777U 19075A   26187.82872032  .00010620  00000+0  26938-3 0  9996
2 44777  97.4957 272.0844 0005992  25.7169 334.4373 15.39857827367901
JILIN-1 GAOFEN 2B       
1 44836U 19086A   26187.82027322  .00004944  00000+0  22613-3 0  9996
2 44836  97.4870 259.6900 0012639 247.5169 112.4729 15.20936420363479
JILIN-1 GAOFEN 3E       
1 46457U 20065D   26187.85339494  .00057415  00000+0  55225-3 0  9991
2 46457  97.2216 240.9492 0011444  98.2325 262.0234 15.66313092322831
JILIN-1 GAOFEN 3F       
1 46458U 20065E   26187.85089103  .00048499  00000+0  52814-3 0  9994
2 46458  97.2173 238.1830 0012843  85.5460 274.7266 15.63182888322774
JILIN-1 GAOFEN 3G       
1 46459U 20065F   26187.86715593  .00095661  00000+0  62949-3 0  9998
2 46459  97.2230 245.3557 0004732 322.6586  37.4350 15.75381548323032
JILIN-1 GAOFEN 3H       
1 46460U 20065G   26187.82322966  .00076177  00000+0  60350-3 0  9999
2 46460  97.2184 241.5081 0005135 233.9098 126.1690 15.71069858322969
JILIN-1 GAOFEN 2D       
1 49256U 21086A   26187.83183767  .00004122  00000+0  24862-3 0  9993
2 49256  97.6496 310.5416 0034405  78.2254 282.2831 15.10818897263682
JILIN-1 GAOFEN 2F       
1 49338U 21097A   26187.81120412  .00003191  00000+0  21129-3 0  9990
2 49338  97.6726 313.9663 0019382 156.2862 203.9263 15.07908785259270
JILIN-1 GAOFEN 3D27     
1 52444U 22048B   26187.81595036  .00140657  00000+0  72301-3 0  9994
2 52444  97.5725 303.6086 0004275 266.6502  93.4276 15.80813205232570
JILIN-1 GAOFEN 3D28     
1 52445U 22048C   26187.83414944  .00185434  00000+0  77615-3 0  9990
2 52445  97.5655 303.8747 0003866 255.2121 104.8721 15.85108669232630
JILIN-1 GAOFEN 3D29     
1 52446U 22048D   26187.80192000  .00141511  00000+0  72154-3 0  9995
2 52446  97.5719 303.9564 0003618 243.5271 116.5626 15.80991594232592
JILIN-1 GAOFEN 3D31     
1 52448U 22048F   26187.81873626  .00248231  24573-4  84423-3 0  9993
2 52448  97.5711 305.1937 0004596 248.3558 111.7225 15.89816378232699
JILIN-1 GAOFEN 03D09    
1 53445U 22098B   26187.86951809  .00068264  00000+0  58393-3 0  9998
2 53445  97.5616 319.0570 0002845 262.0012  98.0927 15.69250945217713
JILIN-1 GAOFEN 03D43    
1 53448U 22098E   26187.86478609  .00083477  00000+0  61497-3 0  9995
2 53448  97.5604 320.1655 0003167 254.1202 105.9712 15.72787868217781
JILIN-1 GAOFEN 03D08    
1 54251U 22155A   26187.85056421  .00054979  00000+0  52122-3 0  9995
2 54251  97.6229 334.8531 0003809 258.9253 101.1578 15.66760582202895
